OBJECT_NAME,OBJECT_ID,EPOCH,MEAN_MOTION,ECCENTRICITY,INCLINATION,RA_OF_ASC_NODE,ARG_OF_PERICENTER,MEAN_ANOMALY,EPHEMERIS_TYPE,CLASSIFICATION_TYPE,NORAD_CAT_ID,ELEMENT_SET_NO,REV_AT_EPOCH,BSTAR,MEAN_MOTION_DOT,MEAN_MOTION_DDOT
STARLINK-4621,2022-105AE,2026-07-11T15:18:30.649536,15.05656224,.0001658,97.2836,70.3820,93.2840,266.8577,0,U,53676,999,21188,.51418509E-4,.686E-5,0
SHERPA-LTC2,2022-107BG,2026-07-12T05:02:38.513472,14.69903594,.03927941,53.2371,114.3885,296.3432,59.7708,0,U,53754,999,20622,.12193901E-3,.2144E-4,0
CENTISPACE-1 S3,2022-108A,2026-07-12T02:31:09.344928,14.61281230,.00106795,53.5340,312.2210,57.5160,302.6846,0,U,53757,999,20517,.66555313E-4,.141E-5,0
CENTISPACE-1 S4,2022-108B,2026-07-12T06:47:02.967936,14.61969854,.00099447,53.5315,308.8846,47.3404,312.8408,0,U,53758,999,20523,.84469633E-4,.236E-5,0
BLUEWALKER-3,2022-111AL,2026-07-12T06:08:57.389856,15.38586599,.00045521,53.2294,276.2527,253.0528,106.9979,0,U,53807,999,21406,.99211757E-4,.3442E-4,0
YUNHAI-1 03,2022-115A,2026-07-12T07:53:24.359424,14.32735039,.00043486,98.5542,191.1576,348.6313,11.4772,0,U,53877,999,19911,.10095999E-3,.231E-5,0
CENTISPACE-1 S5,2022-126A,2026-07-12T05:25:42.616416,14.63053279,.00144935,54.9988,112.7586,118.8412,241.4039,0,U,54020,999,20070,.11535364E-3,.407E-5,0
CENTISPACE-1 S6,2022-126B,2026-07-12T05:33:56.764800,14.62313920,.00162939,54.9990,114.7184,119.8863,240.3752,0,U,54021,999,20066,.9489479E-4,.294E-5,0
OTB-3-GAZELLE,2022-127A,2026-07-11T13:01:04.154016,14.42683143,.00143489,98.3957,183.8773,113.0034,247.2671,0,U,54023,999,19787,.36102287E-4,.77E-6,0
ASO-S,2022-129A,2026-07-12T06:24:56.746944,14.52073992,.00147811,98.2754,197.9893,20.9766,339.2033,0,U,54029,999,19906,.40840628E-4,.121E-5,0
HJ-2E,2022-132A,2026-07-12T07:48:53.655264,15.22670261,.00180519,97.3800,197.2551,281.6222,78.2988,0,U,54035,999,20824,.19019139E-3,.4377E-4,0
COSMOS 2561,2022-137A,2026-07-12T04:16:56.867808,15.52322717,.0008186,96.9179,251.2519,294.5949,65.4452,0,U,54109,999,21022,.14935E-3,.9009E-4,0
GONETS-M 23,2022-139A,2026-07-12T07:08:08.630304,12.42891879,.00220212,82.5092,332.6889,164.6651,195.5100,0,U,54150,999,16876,.68001937E-4,.19E-6,0
GONETS-M 24,2022-139B,2026-07-12T08:25:16.254048,12.42892468,.00170814,82.5009,331.6982,174.1352,185.9930,0,U,54151,999,16877,.60756019E-4,.18E-6,0
GONETS-M 25,2022-139C,2026-07-12T08:05:43.671264,12.42890848,.00210219,82.5074,332.4065,173.1890,186.9480,0,U,54152,999,16877,.67530933E-4,.19E-6,0
SKIF-D,2022-139D,2026-07-11T05:45:42.130944,5.00429592,.00074252,89.9493,96.6613,188.8796,171.1728,0,U,54153,999,6531,0,.2E-7,0
MATS,2022-147A,2026-07-12T00:58:57.048384,15.05492305,.00141282,97.6827,194.5322,112.5854,247.6869,0,U,54227,999,20150,.92282865E-4,.1266E-4,0
EOS-6 (OCEANSAT-3),2022-158A,2026-07-12T07:59:30.850944,14.46983468,.00002757,98.3549,291.1944,127.4350,232.6867,0,U,54361,999,19147,.44457307E-4,.118E-5,0
DONGPO 09,2022-167D,2026-07-12T06:51:32.629248,15.36891058,.00029913,97.6909,5.4259,58.9559,301.1978,0,U,54685,999,19930,.20474093E-3,.7297E-4,0
DONGPO 08,2022-167E,2026-07-12T07:27:24.226848,15.34146832,.0009334,97.6874,2.5099,82.5296,277.7006,0,U,54686,999,19917,.19627208E-3,.6409E-4,0
2022-167F,2022-167F,2026-07-12T08:07:36.550272,16.13244854,.00066151,97.5965,24.7013,243.9085,116.1519,0,U,54687,999,20085,.64938781E-3,.746106E-2,.32661701E-3
DONGPO 10,2022-167H,2026-07-12T07:17:48.775200,15.34962673,.00052335,97.6956,4.5140,37.3936,322.7669,0,U,54689,999,19921,.19523353E-3,.6537E-4,0
JILIN-1 GAOFEN 03D48,2022-167P,2026-07-12T06:56:11.188032,15.35752739,.00067183,97.6890,3.8853,39.6455,320.5278,0,U,54695,999,19924,.19848109E-3,.682E-4,0
STAR VIBE,2023-001A,2026-07-12T04:53:04.333632,15.43299315,.00058134,97.3164,257.7778,40.7087,319.4594,0,U,55009,999,19608,.20808492E-3,.9181E-4,0
BRO-8,2023-001C,2026-07-12T05:29:16.972224,15.50620281,.00051938,97.3196,258.7984,49.9997,310.1710,0,U,55011,999,19608,.38696027E-3,.22111E-3,0
CONNECTA T1.2,2023-001D,2026-07-11T17:46:46.700256,15.52686859,.00042281,97.3246,263.8971,20.9424,339.2002,0,U,55012,999,19635,.44878639E-3,.27637E-3,0
BIRKELAND,2023-001G,2026-07-12T06:54:36.683712,15.40506754,.00067284,97.3341,261.3271,30.9660,329.1982,0,U,55015,999,19621,.14942718E-3,.598E-4,0
ION SCV-008,2023-001AU,2026-07-12T07:22:58.890720,15.28859037,.00132174,97.5719,290.0510,284.6498,75.3275,0,U,55051,999,19517,.12939899E-3,.3557E-4,0
ION SCV-007,2023-001BD,2026-07-12T02:51:15.939936,14.77574604,.00109616,97.8994,255.6380,253.3061,106.6947,0,U,55060,999,18993,.37118638E-4,.214E-5,0
HUYGENS,2023-001CN,2026-07-12T06:54:43.973280,15.40505634,.0008739,97.3244,260.5243,3.9814,356.1501,0,U,55093,999,19623,.14419168E-3,.577E-4,0
