STARLINK-4621           
1 53676U 22105AE  26192.63785474  .00000686  00000+0  51419-4 0  9994
2 53676  97.2836  70.3820 0001658  93.2840 266.8577 15.05656224211887
SHERPA-LTC2             
1 53754U 22107BG  26193.21016798  .00002144  00000+0  12194-3 0  9991
2 53754  53.2371 114.3885 0392794 296.3432  59.7708 14.69903594206228
CENTISPACE-1 S3         
1 53757U 22108A   26193.10496927  .00000141  00000+0  66555-4 0  9995
2 53757  53.5340 312.2210 0010679  57.5160 302.6846 14.61281230205179
CENTISPACE-1 S4         
1 53758U 22108B   26193.28267324  .00000236  00000+0  84470-4 0  9993
2 53758  53.5315 308.8846 0009944  47.3404 312.8408 14.61969854205238
BLUEWALKER-3            
1 53807U 22111AL  26193.25621979  .00003442  00000+0  99212-4 0  9991
2 53807  53.2294 276.2527 0004552 253.0528 106.9979 15.38586599214065
YUNHAI-1 03             
1 53877U 22115A   26193.32875416  .00000231  00000+0  10096-3 0  9992
2 53877  98.5542 191.1576 0004348 348.6313  11.4772 14.32735039199112
CENTISPACE-1 S5         
1 54020U 22126A   26193.22618769  .00000407  00000+0  11535-3 0  9994
2 54020  54.9988 112.7586 0014493 118.8412 241.4039 14.63053279200704
CENTISPACE-1 S6         
1 54021U 22126B   26193.23190700  .00000294  00000+0  94895-4 0  9991
2 54021  54.9990 114.7184 0016293 119.8863 240.3752 14.62313920200661
OTB-3-GAZELLE           
1 54023U 22127A   26192.54240919  .00000077  00000+0  36102-4 0  9991
2 54023  98.3957 183.8773 0014348 113.0034 247.2671 14.42683143197873
ASO-S                   
1 54029U 22129A   26193.26732346  .00000121  00000+0  40841-4 0  9994
2 54029  98.2754 197.9893 0014781  20.9766 339.2033 14.52073992199064
HJ-2E                   
1 54035U 22132A   26193.32562101  .00004377  00000+0  19019-3 0  9991
2 54035  97.3800 197.2551 0018051 281.6222  78.2988 15.22670261208244
COSMOS 2561             
1 54109U 22137A   26193.17843597  .00009009  00000+0  14935-3 0  9991
2 54109  96.9179 251.2519 0008186 294.5949  65.4452 15.52322717210220
GONETS-M 23             
1 54150U 22139A   26193.29732211  .00000019  00000+0  68002-4 0  9999
2 54150  82.5092 332.6889 0022021 164.6651 195.5100 12.42891879168768
GONETS-M 24             
1 54151U 22139B   26193.35088257  .00000018  00000+0  60756-4 0  9998
2 54151  82.5009 331.6982 0017081 174.1352 185.9930 12.42892468168774
GONETS-M 25             
1 54152U 22139C   26193.33731101  .00000019  00000+0  67531-4 0  9999
2 54152  82.5074 332.4065 0021021 173.1890 186.9480 12.42890848168774
SKIF-D                  
1 54153U 22139D   26192.24007096  .00000002  00000+0  00000+0 0  9993
2 54153  89.9493  96.6613 0007425 188.8796 171.1728  5.00429592 65316
MATS                    
1 54227U 22147A   26193.04093806  .00001266  00000+0  92283-4 0  9999
2 54227  97.6827 194.5322 0014128 112.5854 247.6869 15.05492305201503
EOS-6 (OCEANSAT-3)      
1 54361U 22158A   26193.33299596  .00000118  00000+0  44457-4 0  9991
2 54361  98.3549 291.1944 0000275 127.4350 232.6867 14.46983468191474
DONGPO 09               
1 54685U 22167D   26193.28579432  .00007297  00000+0  20474-3 0  9991
2 54685  97.6909   5.4259 0002991  58.9559 301.1978 15.36891058199304
DONGPO 08               
1 54686U 22167E   26193.31069707  .00006409  00000+0  19627-3 0  9997
2 54686  97.6874   2.5099 0009334  82.5296 277.7006 15.34146832199171
2022-167F               
1 54687U 22167F   26193.33861748  .00746106  32662-3  64939-3 0  9999
2 54687  97.5965  24.7013 0006615 243.9085 116.1519 16.13244854200856
DONGPO 10               
1 54689U 22167H   26193.30403675  .00006537  00000+0  19523-3 0  9992
2 54689  97.6956   4.5140 0005233  37.3936 322.7669 15.34962673199217
JILIN-1 GAOFEN 03D48    
1 54695U 22167P   26193.28901838  .00006820  00000+0  19848-3 0  9995
2 54695  97.6890   3.8853 0006718  39.6455 320.5278 15.35752739199240
STAR VIBE               
1 55009U 23001A   26193.20352238  .00009181  00000+0  20808-3 0  9990
2 55009  97.3164 257.7778 0005813  40.7087 319.4594 15.43299315196088
BRO-8                   
1 55011U 23001C   26193.22866866  .00022111  00000+0  38696-3 0  9994
2 55011  97.3196 258.7984 0005193  49.9997 310.1710 15.50620281196084
CONNECTA T1.2           
1 55012U 23001D   26192.74081829  .00027637  00000+0  44879-3 0  9997
2 55012  97.3246 263.8971 0004228  20.9424 339.2002 15.52686859196357
BIRKELAND               
1 55015U 23001G   26193.28792458  .00005980  00000+0  14943-3 0  9993
2 55015  97.3341 261.3271 0006728  30.9660 329.1982 15.40506754196214
ION SCV-008             
1 55051U 23001AU  26193.30762605  .00003557  00000+0  12940-3 0  9990
2 55051  97.5719 290.0510 0013217 284.6498  75.3275 15.28859037195178
ION SCV-007             
1 55060U 23001BD  26193.11893449  .00000214  00000+0  37119-4 0  9993
2 55060  97.8994 255.6380 0010961 253.3061 106.6947 14.77574604189938
HUYGENS                 
1 55093U 23001CN  26193.28800895  .00005770  00000+0  14419-3 0  9999
2 55093  97.3244 260.5243 0008739   3.9814 356.1501 15.40505634196232
